IRIDIUM 33 DEB          
1 34106U 97051DR  24366.82163192  .00161449  00000+0  11804-1 0  9998
2 34106  86.3340 134.1964 0007233 327.1498 192.8716 15.02803754840075
IRIDIUM 33 DEB          
1 34145U 97051DY  24366.60269272  .00014878  00000+0  47328-2 0  9997
2 34145  86.2150 126.2592 0057638 152.3847 208.0434 14.38835737826542
IRIDIUM 33 DEB          
1 34146U 97051DZ  24366.86003127  .00012106  00000+0  33937-2 0  9994
2 34146  86.2859 142.1726 0029007 296.4414 217.1739 14.45713719831126
IRIDIUM 33 DEB          
1 34159U 97051EN  24366.80184996  .00004097  00000+0  13660-2 0  9997
2 34159  86.3523 195.5015 0028561 345.2563  14.7798 14.37147062829883
IRIDIUM 33 DEB          
1 34350U 97051ES  24366.67033858  .00005631  00000+0  16370-2 0  9991
2 34350  86.3305 152.7907 0020943 202.7923 289.0656 14.44025992832960
IRIDIUM 33 DEB          
1 34366U 97051FJ  24366.55128581  .00012205  00000+0  31754-2 0  9991
2 34366  86.3711 199.2244 0020701 220.3305 164.9771 14.49409747831596
IRIDIUM 33 DEB          
1 34375U 97051FT  24366.86869817  .00002698  00000+0  12655-2 0  9993
2 34375  86.4314 322.0962 0104434 144.4874 245.9566 14.16955521818128
IRIDIUM 33 DEB          
1 34376U 97051FU  24366.69969298  .00025851  00000+0  60526-2 0  9995
2 34376  86.3051 161.0239 0029272 267.7647  92.0208 14.54193480829628
IRIDIUM 33 DEB          
1 34486U 97051GB  24366.71548002  .00039267  00000+0  54760-2 0  9995
2 34486  86.4027 169.2674 0013020 272.2697  98.7034 14.77469098838465
IRIDIUM 33 DEB          
1 34487U 97051GC  24366.71786038  .00003226  00000+0  96386-3 0  9996
2 34487  86.3459 161.2315 0030836 191.4667 180.4109 14.42441419832590
IRIDIUM 33 DEB          
1 34488U 97051GD  24366.72726347  .00060011  00000+0  64559-2 0  9996
2 34488  86.3352 110.6091 0016117 186.3781 173.7242 14.88119783840361
IRIDIUM 33 DEB          
1 34492U 97051GH  24365.77165691  .00034250  00000+0  14120-1 0  9998
2 34492  86.4832 113.4368 0230355 265.9079 249.1376 14.13324108801364
IRIDIUM 33 DEB          
1 34497U 97051GN  24366.78647036  .00004515  00000+0  18310-2 0  9990
2 34497  86.2795 199.8776 0083372  12.7737   0.0665 14.25621021819518
IRIDIUM 33 DEB          
1 34508U 97051GZ  24366.41116939  .00009251  00000+0  31700-2 0  9996
2 34508  86.3715 248.9057 0066084 227.6911 131.8674 14.34878499823368
IRIDIUM 33 DEB          
1 34521U 97051HN  24366.22916281  .00015622  00000+0  34182-2 0  9994
2 34521  86.3821 182.3516 0004585  19.1522 340.9858 14.57643191834141
IRIDIUM 33 DEB          
1 34525U 97051HS  24366.48580479  .00004193  00000+0  12858-2 0  9999
2 34525  86.3743 194.3936 0005323 135.8319 252.5188 14.41495117830975
IRIDIUM 33 DEB          
1 34529U 97051HW  24366.24549116  .00001745  00000+0  54854-3 0  9993
2 34529  86.3668 182.9926 0003508 259.8378 100.2425 14.39958985831543
IRIDIUM 33 DEB          
1 34538U 97051JF  24366.88169366  .00009034  00000+0  28503-2 0  9998
2 34538  86.2785 156.6637 0037216  23.5999 129.9023 14.39797792827743
IRIDIUM 33 DEB          
1 34540U 97051JH  24366.78611150  .00021016  00000+0  37251-2 0  9997
2 34540  86.3165 104.6495 0019299 286.7336 233.2159 14.67054549839348
IRIDIUM 33 DEB          
1 34648U 97051JZ  24365.88768072  .00021179  00000+0  11051-1 0  9991
2 34648  86.4037  61.0112 0197148 301.9800  56.2348 14.04886582801381
IRIDIUM 33 DEB          
1 34651U 97051KC  24366.77101438  .00019977  00000+0  83077-2 0  9992
2 34651  86.2824 287.0779 0154539 232.3788 126.3291 14.20021734809758
IRIDIUM 33 DEB          
1 34652U 97051KD  24366.64895242  .00012588  00000+0  27318-2 0  9999
2 34652  86.3346 133.5622 0031000  32.5526 338.8567 14.57730388834349
IRIDIUM 33 DEB          
1 34690U 97051KM  24366.79070611  .00009850  00000+0  24227-2 0  9996
2 34690  86.3822 186.9798 0012361  95.5240 276.4939 14.52146800830685
IRIDIUM 33 DEB          
1 34693U 97051KQ  24366.76613720  .00059787  00000+0  65689-2 0  9991
2 34693  86.3259 108.8860 0016598 197.5009 314.6911 14.87256814837156
IRIDIUM 33 DEB          
1 34696U 97051KT  24365.50230100  .00043225  00000+0  11691-1 0  9995
2 34696  86.1990 186.1720 0098675 257.7022 129.9491 14.44657200816247
IRIDIUM 33 DEB          
1 34702U 97051KZ  24366.59448157  .00088986  00000+0  60410-2 0  9993
2 34702  86.2907  62.6008 0018428  41.6844 318.5792 15.05854426842528
