OBJECT_NAME,OBJECT_ID,EPOCH,MEAN_MOTION,ECCENTRICITY,INCLINATION,RA_OF_ASC_NODE,ARG_OF_PERICENTER,MEAN_ANOMALY,EPHEMERIS_TYPE,CLASSIFICATION_TYPE,NORAD_CAT_ID,ELEMENT_SET_NO,REV_AT_EPOCH,BSTAR,MEAN_MOTION_DOT,MEAN_MOTION_DDOT
IRIDIUM 33 DEB,1997-051DR,2024-12-31T19:43:08.997888,15.02803754,.0007233,86.3340,134.1964,327.1498,192.8716,0,U,34106,999,83994,.11804E-1,.161449E-2,0
IRIDIUM 33 DEB,1997-051DY,2024-12-31T14:27:52.651008,14.38835737,.0057638,86.2150,126.2592,152.3847,208.0434,0,U,34145,999,82654,.47328E-2,.14878E-3,0
IRIDIUM 33 DEB,1997-051DZ,2024-12-31T20:38:26.701728,14.45713719,.0029007,86.2859,142.1726,296.4414,217.1739,0,U,34146,999,83103,.33937E-2,.12106E-3,0
IRIDIUM 33 DEB,1997-051EN,2024-12-31T19:14:39.836544,14.37147062,.0028561,86.3523,195.5015,345.2563,14.7798,0,U,34159,999,82988,.1366E-2,.4097E-4,0
IRIDIUM 33 DEB,1997-051ES,2024-12-31T16:05:17.253312,14.44025992,.0020943,86.3305,152.7907,202.7923,289.0656,0,U,34350,999,83296,.1637E-2,.5631E-4,0
IRIDIUM 33 DEB,1997-051FJ,2024-12-31T13:13:51.093984,14.49409747,.0020701,86.3711,199.2244,220.3305,164.9771,0,U,34366,999,83159,.31754E-2,.12205E-3,0
IRIDIUM 33 DEB,1997-051FT,2024-12-31T20:50:55.521888,14.16955521,.0104434,86.4314,322.0962,144.4874,245.9566,0,U,34375,999,81812,.12655E-2,.2698E-4,0
IRIDIUM 33 DEB,1997-051FU,2024-12-31T16:47:33.473472,14.54193480,.0029272,86.3051,161.0239,267.7647,92.0208,0,U,34376,999,82962,.60526E-2,.25851E-3,0
IRIDIUM 33 DEB,1997-051GB,2024-12-31T17:10:17.473728,14.77469098,.001302,86.4027,169.2674,272.2697,98.7034,0,U,34486,999,83846,.5476E-2,.39267E-3,0
IRIDIUM 33 DEB,1997-051GC,2024-12-31T17:13:43.136832,14.42441419,.0030836,86.3459,161.2315,191.4667,180.4109,0,U,34487,999,83259,.96386E-3,.3226E-4,0
IRIDIUM 33 DEB,1997-051GD,2024-12-31T17:27:15.563808,14.88119783,.0016117,86.3352,110.6091,186.3781,173.7242,0,U,34488,999,84036,.64559E-2,.60011E-3,0
IRIDIUM 33 DEB,1997-051GH,2024-12-30T18:31:11.157024,14.13324108,.0230355,86.4832,113.4368,265.9079,249.1376,0,U,34492,999,80136,.1412E-1,.3425E-3,0
IRIDIUM 33 DEB,1997-051GN,2024-12-31T18:52:31.039104,14.25621021,.0083372,86.2795,199.8776,12.7737,0.0665,0,U,34497,999,81951,.1831E-2,.4515E-4,0
IRIDIUM 33 DEB,1997-051GZ,2024-12-31T09:52:05.035296,14.34878499,.0066084,86.3715,248.9057,227.6911,131.8674,0,U,34508,999,82336,.317E-2,.9251E-4,0
IRIDIUM 33 DEB,1997-051HN,2024-12-31T05:29:59.666784,14.57643191,.0004585,86.3821,182.3516,19.1522,340.9858,0,U,34521,999,83414,.34182E-2,.15622E-3,0
IRIDIUM 33 DEB,1997-051HS,2024-12-31T11:39:33.533856,14.41495117,.0005323,86.3743,194.3936,135.8319,252.5188,0,U,34525,999,83097,.12858E-2,.4193E-4,0
IRIDIUM 33 DEB,1997-051HW,2024-12-31T05:53:30.436224,14.39958985,.0003508,86.3668,182.9926,259.8378,100.2425,0,U,34529,999,83154,.54854E-3,.1745E-4,0
IRIDIUM 33 DEB,1997-051JF,2024-12-31T21:09:38.332224,14.39797792,.0037216,86.2785,156.6637,23.5999,129.9023,0,U,34538,999,82774,.28503E-2,.9034E-4,0
IRIDIUM 33 DEB,1997-051JH,2024-12-31T18:52:00.033600,14.67054549,.0019299,86.3165,104.6495,286.7336,233.2159,0,U,34540,999,83934,.37251E-2,.21016E-3,0
IRIDIUM 33 DEB,1997-051JZ,2024-12-30T21:18:15.614208,14.04886582,.0197148,86.4037,61.0112,301.9800,56.2348,0,U,34648,999,80138,.11051E-1,.21179E-3,0
IRIDIUM 33 DEB,1997-051KC,2024-12-31T18:30:15.642432,14.20021734,.0154539,86.2824,287.0779,232.3788,126.3291,0,U,34651,999,80975,.83077E-2,.19977E-3,0
IRIDIUM 33 DEB,1997-051KD,2024-12-31T15:34:29.489088,14.57730388,.0031,86.3346,133.5622,32.5526,338.8567,0,U,34652,999,83434,.27318E-2,.12588E-3,0
IRIDIUM 33 DEB,1997-051KM,2024-12-31T18:58:37.007904,14.52146800,.0012361,86.3822,186.9798,95.5240,276.4939,0,U,34690,999,83068,.24227E-2,.985E-4,0
IRIDIUM 33 DEB,1997-051KQ,2024-12-31T18:23:14.254080,14.87256814,.0016598,86.3259,108.8860,197.5009,314.6911,0,U,34693,999,83715,.65689E-2,.59787E-3,0
IRIDIUM 33 DEB,1997-051KT,2024-12-30T12:03:18.806400,14.44657200,.0098675,86.1990,186.1720,257.7022,129.9491,0,U,34696,999,81624,.11691E-1,.43225E-3,0
IRIDIUM 33 DEB,1997-051KZ,2024-12-31T14:16:03.207648,15.05854426,.0018428,86.2907,62.6008,41.6844,318.5792,0,U,34702,999,84252,.6041E-2,.88986E-3,0
